[{"OBJECT_NAME":"STARLINK-5793","OBJECT_ID":"2023-042BE","EPOCH":"2026-03-09T22:50:31.732224","MEAN_MOTION":15.02595472,"ECCENTRICITY":0.00021017,"INCLINATION":43.0042,"RA_OF_ASC_NODE":41.3376,"ARG_OF_PERICENTER":290.9028,"MEAN_ANOMALY":69.1589,"EPHEMERIS_TYPE":0,"CLASSIFICATION_TYPE":"U","NORAD_CAT_ID":56038,"ELEMENT_SET_NO":999,"REV_AT_EPOCH":16310,"BSTAR":0.00042797597,"MEAN_MOTION_DOT":5.591e-5,"MEAN_MOTION_DDOT":0},{"OBJECT_NAME":"CZ-6A DEB","OBJECT_ID":"2022-151BA","EPOCH":"2026-03-08T17:30:58.855968","MEAN_MOTION":14.9439792,"ECCENTRICITY":0.00472807,"INCLINATION":98.5596,"RA_OF_ASC_NODE":128.1704,"ARG_OF_PERICENTER":200.9968,"MEAN_ANOMALY":158.931,"EPHEMERIS_TYPE":0,"CLASSIFICATION_TYPE":"U","NORAD_CAT_ID":54307,"ELEMENT_SET_NO":999,"REV_AT_EPOCH":10452,"BSTAR":0.0069448926,"MEAN_MOTION_DOT":0.00077164,"MEAN_MOTION_DDOT":0}]
